{
  "type": "FeatureCollection",
  "features": [
    {
      "type": "Feature",
      "properties": {
        "average_dip": "(80.0,70.0,90.0)",
        "average_rake": "(15,180.0,-150.0)",
        "catalog_id": "ME_GRCS850",
        "catalog_name": "EMME",
        "epistemic_quality": "1",
        "lower_seis_depth": "(15.0,,)",
        "net_slip_rate": "(1.2,0.5,2.0)",
        "slip_type": "Dextral",
        "upper_seis_depth": "(0.0,,)",
        "tech_id": "fault_geom_0001"
      },
      "geometry": {
        "type": "LineString",
        "coordinates": [
          [
            26.354506,
            39.379322
          ],
          [
            26.333096,
            39.35704
          ],
          [
            26.311687,
            39.325208
          ],
          [
            26.291296,
            39.288602
          ],
          [
            26.277023,
            39.254383
          ],
          [
            26.265808,
            39.22096
          ],
          [
            26.239301,
            39.183557
          ],
          [
            26.215343,
            39.160082
          ],
          [
            26.191384,
            39.136606
          ],
          [
            26.162838,
            39.111539
          ],
          [
            26.134291,
            39.086471
          ],
          [
            26.09453,
            39.05066
          ],
          [
            26.058929,
            39.019602
          ],
          [
            26.020851,
            38.989712
          ],
          [
            26.001716,
            38.97414
          ]
        ]
      }
    },
    {
      "type": "Feature",
      "properties": {
        "average_dip": "(62.0,58.0,66.0)",
        "average_rake": "(-156,-171.0,-142.0)",
        "catalog_id": "ME_TRCS014",
        "catalog_name": "EMME",
        "epistemic_quality": "1",
        "lower_seis_depth": "(18.0,,)",
        "net_slip_rate": "(0.8,0.7,1.0)",
        "slip_type": "Dextral-Normal",
        "upper_seis_depth": "(0.0,,)",
        "tech_id": "fault_geom_0002"
      },
      "geometry": {
        "type": "LineString",
        "coordinates": [
          [
            28.7511,
            40.7298
          ],
          [
            28.806491,
            40.719904
          ],
          [
            28.861882,
            40.710007
          ],
          [
            28.898384,
            40.67693
          ],
          [
            28.934885,
            40.643852
          ],
          [
            28.991113,
            40.650216
          ],
          [
            29.04734,
            40.656579
          ],
          [
            29.103262,
            40.664388
          ],
          [
            29.159184,
            40.672196
          ],
          [
            29.215207,
            40.67964
          ],
          [
            29.271229,
            40.687084
          ],
          [
            29.326984,
            40.69565
          ],
          [
            29.382739,
            40.704215
          ],
          [
            29.42012,
            40.709958
          ],
          [
            29.4575,
            40.7157
          ]
        ]
      }
    },
    {
      "type": "Feature",
      "properties": {
        "average_dip": "(85.0,80.0,90.0)",
        "average_rake": "(-146,-166.0,-126.0)",
        "catalog_id": "ME_TRCS015",
        "catalog_name": "EMME",
        "epistemic_quality": "1",
        "lower_seis_depth": "(18.0,,)",
        "net_slip_rate": "(0.8,0.7,1.0)",
        "slip_type": "Dextral-Normal",
        "upper_seis_depth": "(0.0,,)",
        "tech_id": "fault_geom_0003"
      },
      "geometry": {
        "type": "LineString",
        "coordinates": [
          [
            28.2957,
            40.7189
          ],
          [
            28.345701,
            40.691778
          ],
          [
            28.395702,
            40.664655
          ],
          [
            28.445676,
            40.637548
          ],
          [
            28.495651,
            40.61044
          ],
          [
            28.545598,
            40.583347
          ],
          [
            28.595546,
            40.556254
          ],
          [
            28.654718,
            40.54396
          ],
          [
            28.713889,
            40.531665
          ],
          [
            28.769515,
            40.55133
          ],
          [
            28.82514,
            40.570995
          ],
          [
            28.880792,
            40.59067
          ],
          [
            28.936444,
            40.610345
          ],
          [
            28.986022,
            40.627873
          ],
          [
            29.0356,
            40.6454
          ]
        ]
      }
    },
    {
      "type": "Feature",
      "properties": {
        "average_dip": "(85.0,85.0,85.0)",
        "average_rake": "(17,180.0,-146.0)",
        "catalog_id": "ME_TRCS023",
        "catalog_name": "EMME",
        "epistemic_quality": "1",
        "lower_seis_depth": "(18.0,,)",
        "net_slip_rate": "(5.3,5.3,5.388)",
        "slip_type": "Dextral",
        "upper_seis_depth": "(0.0,,)",
        "tech_id": "fault_geom_0004"
      },
      "geometry": {
        "type": "LineString",
        "coordinates": [
          [
            27.957,
            40.4104
          ],
          [
            28.013158,
            40.418471
          ],
          [
            28.069315,
            40.426542
          ],
          [
            28.125486,
            40.434615
          ],
          [
            28.181656,
            40.442688
          ],
          [
            28.23784,
            40.450763
          ],
          [
            28.294023,
            40.458838
          ],
          [
            28.350306,
            40.466558
          ],
          [
            28.406589,
            40.474277
          ],
          [
            28.463631,
            40.471099
          ],
          [
            28.520673,
            40.467921
          ],
          [
            28.577581,
            40.46362
          ],
          [
            28.634488,
            40.459319
          ],
          [
            28.691439,
            40.455416
          ],
          [
            28.74839,
            40.451512
          ],
          [
            28.804653,
            40.443785
          ],
          [
            28.860915,
            40.436058
          ],
          [
            28.914221,
            40.420367
          ],
          [
            28.967527,
            40.404676
          ],
          [
            29.0782,
            40.3946
          ]
        ]
      }
    },
    {
      "type": "Feature",
      "properties": {
        "average_dip": "(67.0,49.0,85.0)",
        "average_rake": "(180,180.0,180.0)",
        "catalog_id": "ME_TRCS024",
        "catalog_name": "EMME",
        "epistemic_quality": "1",
        "lower_seis_depth": "(18.0,,)",
        "net_slip_rate": "(3.0,3.0,3.0)",
        "slip_type": "Dextral",
        "upper_seis_depth": "(0.0,,)",
        "tech_id": "fault_geom_0005"
      },
      "geometry": {
        "type": "LineString",
        "coordinates": [
          [
            27.466,
            40.2715
          ],
          [
            27.50564,
            40.270746
          ],
          [
            27.545279,
            40.269991
          ],
          [
            27.584919,
            40.269237
          ],
          [
            27.622189,
            40.279586
          ],
          [
            27.659459,
            40.289935
          ],
          [
            27.696729,
            40.300284
          ],
          [
            27.732543,
            40.313312
          ],
          [
            27.768357,
            40.326339
          ],
          [
            27.804171,
            40.339367
          ],
          [
            27.857136,
            40.358634
          ],
          [
            27.9101,
            40.3779
          ]
        ]
      }
    },
    {
      "type": "Feature",
      "properties": {
        "average_dip": "(85.0,85.0,85.0)",
        "average_rake": "(180,180.0,180.0)",
        "catalog_id": "ME_TRCS025",
        "catalog_name": "EMME",
        "epistemic_quality": "1",
        "lower_seis_depth": "(18.0,,)",
        "net_slip_rate": "(3.0,3.0,3.0)",
        "slip_type": "Dextral",
        "upper_seis_depth": "(0.0,,)",
        "tech_id": "fault_geom_0006"
      },
      "geometry": {
        "type": "LineString",
        "coordinates": [
          [
            27.2535,
            40.0667
          ],
          [
            27.289802,
            40.084905
          ],
          [
            27.326104,
            40.103109
          ],
          [
            27.362406,
            40.121314
          ],
          [
            27.399073,
            40.13912
          ],
          [
            27.435741,
            40.156925
          ],
          [
            27.472408,
            40.174731
          ],
          [
            27.513054,
            40.186504
          ],
          [
            27.5537,
            40.198277
          ],
          [
            27.594346,
            40.21005
          ],
          [
            27.634797,
            40.221767
          ],
          [
            27.675249,
            40.233483
          ],
          [
            27.7157,
            40.2452
          ]
        ]
      }
    },
    {
      "type": "Feature",
      "properties": {
        "average_dip": "(85.0,85.0,85.0)",
        "average_rake": "(7,180.0,-166.0)",
        "catalog_id": "ME_TRCS027",
        "catalog_name": "EMME",
        "epistemic_quality": "1",
        "lower_seis_depth": "(18.0,,)",
        "net_slip_rate": "(3.6,3.0,4.124)",
        "slip_type": "Dextral",
        "upper_seis_depth": "(0.0,,)",
        "tech_id": "fault_geom_0007"
      },
      "geometry": {
        "type": "LineString",
        "coordinates": [
          [
            26.139,
            39.7089
          ],
          [
            26.194701,
            39.722835
          ],
          [
            26.250402,
            39.736769
          ],
          [
            26.306123,
            39.750709
          ],
          [
            26.361844,
            39.764648
          ],
          [
            26.417586,
            39.778593
          ],
          [
            26.473328,
            39.792538
          ],
          [
            26.52909,
            39.806488
          ],
          [
            26.584852,
            39.820438
          ],
          [
            26.626539,
            39.852145
          ],
          [
            26.668225,
            39.883852
          ],
          [
            26.718764,
            39.906798
          ],
          [
            26.769303,
            39.929745
          ],
          [
            26.822187,
            39.949392
          ],
          [
            26.87507,
            39.969038
          ],
          [
            26.930317,
            39.984456
          ],
          [
            26.985564,
            39.999874
          ],
          [
            27.038368,
            40.019731
          ],
          [
            27.091172,
            40.039588
          ],
          [
            27.1755,
            40.072
          ]
        ]
      }
    },
    {
      "type": "Feature",
      "properties": {
        "average_dip": "(50.0,50.0,50.0)",
        "average_rake": "(-104,-104.0,-104.0)",
        "catalog_id": "ME_TRCS029",
        "catalog_name": "EMME",
        "epistemic_quality": "1",
        "lower_seis_depth": "(18.0,,)",
        "net_slip_rate": "None",
        "slip_type": "Normal",
        "upper_seis_depth": "(0.0,,)",
        "tech_id": "fault_geom_0008"
      },
      "geometry": {
        "type": "LineString",
        "coordinates": [
          [
            29.21268,
            40.170228
          ],
          [
            29.168249,
            40.170312
          ],
          [
            29.123817,
            40.170397
          ],
          [
            29.079386,
            40.170481
          ],
          [
            29.034955,
            40.170565
          ],
          [
            28.990523,
            40.17065
          ],
          [
            28.946092,
            40.170734
          ],
          [
            28.901658,
            40.170818
          ],
          [
            28.857223,
            40.170903
          ],
          [
            28.812789,
            40.170987
          ]
        ]
      }
    },
    {
      "type": "Feature",
      "properties": {
        "average_dip": "(40.0,40.0,40.0)",
        "average_rake": "(-108,-108.0,-108.0)",
        "catalog_id": "ME_TRCS030",
        "catalog_name": "EMME",
        "epistemic_quality": "1",
        "lower_seis_depth": "(18.0,,)",
        "net_slip_rate": "None",
        "slip_type": "Normal",
        "upper_seis_depth": "(1.0,,)",
        "tech_id": "fault_geom_0009"
      },
      "geometry": {
        "type": "LineString",
        "coordinates": [
          [
            27.790159,
            40.115418
          ],
          [
            27.820272,
            40.111046
          ],
          [
            27.875743,
            40.102991
          ],
          [
            27.931202,
            40.094939
          ],
          [
            27.986661,
            40.086886
          ],
          [
            28.042292,
            40.079618
          ],
          [
            28.097923,
            40.07235
          ],
          [
            28.153098,
            40.063315
          ],
          [
            28.208273,
            40.05428
          ],
          [
            28.263434,
            40.045247
          ],
          [
            28.318595,
            40.036214
          ],
          [
            28.373598,
            40.027207
          ],
          [
            28.4286,
            40.0182
          ]
        ]
      }
    },
    {
      "type": "Feature",
      "properties": {
        "average_dip": "(68.0,60.0,76.0)",
        "average_rake": "(19,180.0,-142.0)",
        "catalog_id": "ME_TRCS031",
        "catalog_name": "EMME",
        "epistemic_quality": "1",
        "lower_seis_depth": "(18.0,,)",
        "net_slip_rate": "(3.6,3.0,4.1306)",
        "slip_type": "Dextral",
        "upper_seis_depth": "(1.0,,)",
        "tech_id": "fault_geom_0010"
      },
      "geometry": {
        "type": "LineString",
        "coordinates": [
          [
            27.04728,
            39.87995
          ],
          [
            27.105238,
            39.890693
          ],
          [
            27.163195,
            39.901436
          ],
          [
            27.222531,
            39.906045
          ],
          [
            27.281866,
            39.910654
          ],
          [
            27.332976,
            39.934259
          ],
          [
            27.384085,
            39.957864
          ],
          [
            27.435221,
            39.981481
          ],
          [
            27.486356,
            40.005097
          ],
          [
            27.530259,
            40.03613
          ],
          [
            27.574162,
            40.067163
          ],
          [
            27.631869,
            40.079137
          ],
          [
            27.689575,
            40.091111
          ],
          [
            27.738078,
            40.101176
          ],
          [
            27.763786,
            40.113361
          ],
          [
            27.780415,
            40.117302
          ]
        ]
      }
    },
    {
      "type": "Feature",
      "properties": {
        "average_dip": "(80.0,80.0,80.0)",
        "average_rake": "(180,180.0,180.0)",
        "catalog_id": "ME_TRCS032",
        "catalog_name": "EMME",
        "epistemic_quality": "1",
        "lower_seis_depth": "(18.0,,)",
        "net_slip_rate": "(2.0,2.0,2.0)",
        "slip_type": "Dextral",
        "upper_seis_depth": "(1.0,,)",
        "tech_id": "fault_geom_0011"
      },
      "geometry": {
        "type": "LineString",
        "coordinates": [
          [
            27.4576,
            39.8971
          ],
          [
            27.411085,
            39.873682
          ],
          [
            27.36457,
            39.850263
          ],
          [
            27.318077,
            39.826856
          ],
          [
            27.271584,
            39.803448
          ],
          [
            27.225113,
            39.780052
          ],
          [
            27.178642,
            39.756656
          ],
          [
            27.132194,
            39.733271
          ],
          [
            27.085745,
            39.709886
          ],
          [
            27.039319,
            39.686512
          ],
          [
            26.931661,
            39.622815
          ],
          [
            26.92086,
            39.616424
          ],
          [
            26.848457,
            39.573586
          ]
        ]
      }
    },
    {
      "type": "Feature",
      "properties": {
        "average_dip": "(60.0,60.0,60.0)",
        "average_rake": "(-134,-164.0,-105.0)",
        "catalog_id": "ME_TRCS033",
        "catalog_name": "EMME",
        "epistemic_quality": "1",
        "lower_seis_depth": "(18.0,,)",
        "net_slip_rate": "(3.9,3.6638,4.1633)",
        "slip_type": "Dextral-Normal",
        "upper_seis_depth": "(1.0,,)",
        "tech_id": "fault_geom_0012"
      },
      "geometry": {
        "type": "LineString",
        "coordinates": [
          [
            25.4386,
            39.2214
          ],
          [
            25.544532,
            39.261536
          ],
          [
            25.649615,
            39.303083
          ],
          [
            25.761956,
            39.331158
          ],
          [
            25.873721,
            39.360678
          ],
          [
            25.979516,
            39.401357
          ],
          [
            26.084466,
            39.443416
          ],
          [
            26.201428,
            39.457006
          ],
          [
            26.312081,
            39.489347
          ],
          [
            26.426623,
            39.512373
          ],
          [
            26.538683,
            39.541885
          ],
          [
            26.650786,
            39.571408
          ],
          [
            26.761756,
            39.60347
          ],
          [
            26.872464,
            39.63618
          ]
        ]
      }
    },
    {
      "type": "Feature",
      "properties": {
        "average_dip": "(85.0,85.0,85.0)",
        "average_rake": "(180,180.0,180.0)",
        "catalog_id": "ME_TRCS040",
        "catalog_name": "EMME",
        "epistemic_quality": "1",
        "lower_seis_depth": "(18.0,,)",
        "net_slip_rate": "(3.4,3.4,3.4)",
        "slip_type": "Dextral",
        "upper_seis_depth": "(0.0,,)",
        "tech_id": "fault_geom_0013"
      },
      "geometry": {
        "type": "LineString",
        "coordinates": [
          [
            28.803114,
            40.190994
          ],
          [
            28.765251,
            40.172123
          ],
          [
            28.727388,
            40.153252
          ],
          [
            28.689525,
            40.134381
          ],
          [
            28.651684,
            40.115521
          ],
          [
            28.613843,
            40.096662
          ],
          [
            28.576002,
            40.077802
          ],
          [
            28.538182,
            40.058952
          ],
          [
            28.500363,
            40.040103
          ],
          [
            28.462543,
            40.021253
          ]
        ]
      }
    },
    {
      "type": "Feature",
      "properties": {
        "average_dip": "(56.0,56.0,56.0)",
        "average_rake": "(-90,-90.0,-90.0)",
        "catalog_id": "ME_TRCS209",
        "catalog_name": "EMME",
        "epistemic_quality": "1",
        "lower_seis_depth": "(15.0,,)",
        "net_slip_rate": "None",
        "slip_type": "Normal",
        "upper_seis_depth": "(1.0,,)",
        "tech_id": "fault_geom_0014"
      },
      "geometry": {
        "type": "LineString",
        "coordinates": [
          [
            28.90582,
            39.108938
          ],
          [
            28.865417,
            39.115577
          ],
          [
            28.825015,
            39.122216
          ],
          [
            28.784612,
            39.128855
          ],
          [
            28.744199,
            39.135496
          ],
          [
            28.703785,
            39.142137
          ],
          [
            28.663372,
            39.148778
          ],
          [
            28.622947,
            39.155421
          ],
          [
            28.582523,
            39.162063
          ],
          [
            28.542098,
            39.168706
          ],
          [
            28.501661,
            39.175351
          ],
          [
            28.461225,
            39.181995
          ],
          [
            28.420788,
            39.18864
          ]
        ]
      }
    },
    {
      "type": "Feature",
      "properties": {
        "average_dip": "(50.0,50.0,50.0)",
        "average_rake": "(-95,-95.0,-95.0)",
        "catalog_id": "ME_TRCS210",
        "catalog_name": "EMME",
        "epistemic_quality": "1",
        "lower_seis_depth": "(15.0,,)",
        "net_slip_rate": "(5.0,4.9605,5.0246)",
        "slip_type": "Normal",
        "upper_seis_depth": "(1.0,,)",
        "tech_id": "fault_geom_0015"
      },
      "geometry": {
        "type": "LineString",
        "coordinates": [
          [
            28.332585,
            39.146565
          ],
          [
            28.281087,
            39.166223
          ],
          [
            28.229588,
            39.18588
          ],
          [
            28.178067,
            39.205546
          ],
          [
            28.126545,
            39.225212
          ],
          [
            28.074997,
            39.244889
          ],
          [
            28.023449,
            39.264565
          ]
        ]
      }
    },
    {
      "type": "Feature",
      "properties": {
        "average_dip": "(40.0,40.0,40.0)",
        "average_rake": "(-118,-118.0,-118.0)",
        "catalog_id": "ME_TRCS231",
        "catalog_name": "EMME",
        "epistemic_quality": "1",
        "lower_seis_depth": "(10.0,,)",
        "net_slip_rate": "(0.8,0.0001,1.5589)",
        "slip_type": "Dextral-Normal",
        "upper_seis_depth": "(1.0,,)",
        "tech_id": "fault_geom_0016"
      },
      "geometry": {
        "type": "LineString",
        "coordinates": [
          [
            28.351609,
            39.252083
          ],
          [
            28.304746,
            39.266134
          ],
          [
            28.257883,
            39.280185
          ],
          [
            28.211004,
            39.294241
          ],
          [
            28.164124,
            39.308296
          ],
          [
            28.117226,
            39.322357
          ],
          [
            28.070327,
            39.336419
          ]
        ]
      }
    },
    {
      "type": "Feature",
      "properties": {
        "average_dip": "(70.0,70.0,70.0)",
        "average_rake": "(-146,-146.0,-146.0)",
        "catalog_id": "ME_TRCS232",
        "catalog_name": "EMME",
        "epistemic_quality": "1",
        "lower_seis_depth": "(15.0,,)",
        "net_slip_rate": "(1.6,0.0001,3.1832)",
        "slip_type": "Dextral-Normal",
        "upper_seis_depth": "(1.0,,)",
        "tech_id": "fault_geom_0017"
      },
      "geometry": {
        "type": "LineString",
        "coordinates": [
          [
            27.67261,
            38.784217
          ],
          [
            27.753898,
            38.852578
          ],
          [
            27.835222,
            38.92097
          ],
          [
            27.823265,
            39.013696
          ],
          [
            27.891994,
            39.090091
          ],
          [
            27.957908,
            39.168002
          ],
          [
            27.990121,
            39.257787
          ],
          [
            28.052346,
            39.337573
          ],
          [
            28.100308,
            39.423071
          ],
          [
            28.157554,
            39.505115
          ],
          [
            28.162,
            39.598244
          ]
        ]
      }
    },
    {
      "type": "Feature",
      "properties": {
        "average_dip": "(70.0,70.0,70.0)",
        "average_rake": "(180,180.0,180.0)",
        "catalog_id": "ME_TRCS233",
        "catalog_name": "EMME",
        "epistemic_quality": "1",
        "lower_seis_depth": "(15.0,,)",
        "net_slip_rate": "(2.0,2.0,2.0)",
        "slip_type": "Dextral",
        "upper_seis_depth": "(1.0,,)",
        "tech_id": "fault_geom_0018"
      },
      "geometry": {
        "type": "LineString",
        "coordinates": [
          [
            28.374863,
            39.81843
          ],
          [
            28.3253,
            39.791081
          ],
          [
            28.275736,
            39.763732
          ],
          [
            28.226198,
            39.736397
          ],
          [
            28.17666,
            39.709063
          ],
          [
            28.127148,
            39.681743
          ],
          [
            28.077637,
            39.654422
          ],
          [
            28.028151,
            39.627116
          ],
          [
            27.978665,
            39.59981
          ],
          [
            27.929205,
            39.572519
          ],
          [
            27.879745,
            39.545227
          ],
          [
            27.830311,
            39.51795
          ],
          [
            27.780876,
            39.490672
          ],
          [
            27.731454,
            39.463401
          ],
          [
            27.682032,
            39.43613
          ]
        ]
      }
    },
    {
      "type": "Feature",
      "properties": {
        "average_dip": "(70.0,70.0,70.0)",
        "average_rake": "(-166,-166.0,-166.0)",
        "catalog_id": "ME_TRCS234",
        "catalog_name": "EMME",
        "epistemic_quality": "1",
        "lower_seis_depth": "(15.0,,)",
        "net_slip_rate": "(2.1,2.0,2.2655)",
        "slip_type": "Dextral",
        "upper_seis_depth": "(1.0,,)",
        "tech_id": "fault_geom_0019"
      },
      "geometry": {
        "type": "LineString",
        "coordinates": [
          [
            27.543105,
            39.616842
          ],
          [
            27.597139,
            39.618182
          ],
          [
            27.651172,
            39.619521
          ],
          [
            27.705208,
            39.62086
          ],
          [
            27.759243,
            39.622199
          ],
          [
            27.813283,
            39.623539
          ],
          [
            27.867323,
            39.624878
          ]
        ]
      }
    },
    {
      "type": "Feature",
      "properties": {
        "average_dip": "(64.0,64.0,64.0)",
        "average_rake": "(-130,-130.0,-130.0)",
        "catalog_id": "ME_TRCS311",
        "catalog_name": "EMME",
        "epistemic_quality": "1",
        "lower_seis_depth": "(15.0,,)",
        "net_slip_rate": "(1.3,0.0001,2.6836)",
        "slip_type": "Dextral-Normal",
        "upper_seis_depth": "(1.0,,)",
        "tech_id": "fault_geom_0020"
      },
      "geometry": {
        "type": "LineString",
        "coordinates": [
          [
            28.218619,
            39.672874
          ],
          [
            28.333953,
            39.66408
          ],
          [
            28.449272,
            39.655287
          ],
          [
            28.564576,
            39.646495
          ],
          [
            28.679866,
            39.637704
          ],
          [
            28.795141,
            39.628914
          ],
          [
            28.910402,
            39.620125
          ],
          [
            29.020832,
            39.593287
          ],
          [
            29.127684,
            39.558996
          ],
          [
            29.239501,
            39.536084
          ],
          [
            29.351284,
            39.513179
          ],
          [
            29.463033,
            39.490281
          ],
          [
            29.574747,
            39.46739
          ],
          [
            29.672965,
            39.514441
          ],
          [
            29.779053,
            39.478985
          ],
          [
            29.885096,
            39.443544
          ],
          [
            29.991093,
            39.408118
          ],
          [
            30.097045,
            39.372708
          ],
          [
            30.148197,
            39.355612
          ]
        ]
      }
    },
    {
      "type": "Feature",
      "properties": {
        "average_dip": "(75.0,75.0,75.0)",
        "average_rake": "(-32,-32.0,-32.0)",
        "catalog_id": "ME_TRCS316",
        "catalog_name": "EMME",
        "epistemic_quality": "1",
        "lower_seis_depth": "(13.0,,)",
        "net_slip_rate": "(1.0,0.0001,2.0659)",
        "slip_type": "Sinistral-Normal",
        "upper_seis_depth": "(1.0,,)",
        "tech_id": "fault_geom_0021"
      },
      "geometry": {
        "type": "LineString",
        "coordinates": [
          [
            27.250395,
            39.0344
          ],
          [
            27.296999,
            39.051861
          ],
          [
            27.343622,
            39.06933
          ],
          [
            27.390245,
            39.086799
          ],
          [
            27.436887,
            39.104275
          ],
          [
            27.483529,
            39.121751
          ],
          [
            27.530195,
            39.139236
          ],
          [
            27.57686,
            39.15672
          ]
        ]
      }
    },
    {
      "type": "Feature",
      "properties": {
        "average_dip": "(85.0,85.0,85.0)",
        "average_rake": "(-148,-148.0,-148.0)",
        "catalog_id": "ME_TRCS416",
        "catalog_name": "EMME",
        "epistemic_quality": "1",
        "lower_seis_depth": "(13.0,,)",
        "net_slip_rate": "(1.0,0.0001,2.062)",
        "slip_type": "Dextral-Normal",
        "upper_seis_depth": "(1.0,,)",
        "tech_id": "fault_geom_0022"
      },
      "geometry": {
        "type": "LineString",
        "coordinates": [
          [
            27.667392,
            39.171129
          ],
          [
            27.660571,
            39.141234
          ],
          [
            27.65375,
            39.111338
          ],
          [
            27.646929,
            39.081443
          ],
          [
            27.640108,
            39.051549
          ],
          [
            27.633288,
            39.021654
          ],
          [
            27.626467,
            38.99176
          ],
          [
            27.619646,
            38.961867
          ],
          [
            27.612826,
            38.931974
          ],
          [
            27.606005,
            38.902081
          ],
          [
            27.599185,
            38.872188
          ],
          [
            27.592364,
            38.842296
          ],
          [
            27.585544,
            38.812403
          ]
        ]
      }
    },
    {
      "type": "Feature",
      "properties": {
        "average_dip": "(85.0,85.0,85.0)",
        "average_rake": "(180,180.0,180.0)",
        "catalog_id": "ME_TRCS417",
        "catalog_name": "EMME",
        "epistemic_quality": "1",
        "lower_seis_depth": "(18.0,,)",
        "net_slip_rate": "(3.0,3.0,3.0)",
        "slip_type": "Dextral",
        "upper_seis_depth": "(1.0,,)",
        "tech_id": "fault_geom_0023"
      },
      "geometry": {
        "type": "LineString",
        "coordinates": [
          [
            27.10363,
            39.93501
          ],
          [
            27.062686,
            39.906604
          ],
          [
            27.021741,
            39.878198
          ],
          [
            26.980815,
            39.849805
          ],
          [
            26.939888,
            39.821412
          ],
          [
            26.898979,
            39.793031
          ],
          [
            26.85807,
            39.76465
          ]
        ]
      }
    },
    {
      "type": "Feature",
      "properties": {
        "average_dip": "(65.0,50.0,80.0)",
        "average_rake": "(-90,-100.0,-80.0)",
        "catalog_id": "ME_TRCS901",
        "catalog_name": "EMME",
        "epistemic_quality": "1",
        "lower_seis_depth": "(15.0,,)",
        "net_slip_rate": "(0.9,0.6,1.1)",
        "slip_type": "Normal",
        "upper_seis_depth": "(0.0,,)",
        "tech_id": "fault_geom_0024"
      },
      "geometry": {
        "type": "LineString",
        "coordinates": [
          [
            26.169011,
            39.962305
          ],
          [
            26.180137,
            39.960416
          ],
          [
            26.205997,
            39.958764
          ],
          [
            26.225048,
            39.958853
          ],
          [
            26.239977,
            39.959472
          ],
          [
            26.253208,
            39.961597
          ],
          [
            26.274558,
            39.965137
          ],
          [
            26.295908,
            39.968678
          ],
          [
            26.318461,
            39.968914
          ],
          [
            26.334398,
            39.971274
          ],
          [
            26.351237,
            39.977175
          ],
          [
            26.365818,
            39.98787
          ],
          [
            26.377766,
            39.990508
          ],
          [
            26.405771,
            40.000766
          ],
          [
            26.418467,
            40.002232
          ],
          [
            26.433029,
            40.010732
          ]
        ]
      }
    },
    {
      "type": "Feature",
      "properties": {
        "average_dip": "(72.5,55.0,90.0)",
        "average_rake": "(22,180.0,-135.0)",
        "catalog_id": "ME_TRCS996",
        "catalog_name": "EMME",
        "epistemic_quality": "1",
        "lower_seis_depth": "(19.0,,)",
        "net_slip_rate": "(21.9,15.0,28.8881)",
        "slip_type": "Dextral-Normal",
        "upper_seis_depth": "(0.0,,)",
        "tech_id": "fault_geom_0025"
      },
      "geometry": {
        "type": "LineString",
        "coordinates": [
          [
            25.005397,
            39.984839
          ],
          [
            25.081501,
            40.006679
          ],
          [
            25.251618,
            40.053514
          ],
          [
            25.389534,
            40.092251
          ],
          [
            25.524078,
            40.123521
          ],
          [
            25.628512,
            40.161581
          ],
          [
            25.773818,
            40.212031
          ],
          [
            25.926659,
            40.247307
          ],
          [
            26.085589,
            40.272354
          ],
          [
            26.200499,
            40.315794
          ],
          [
            26.321028,
            40.371284
          ],
          [
            26.488272,
            40.451043
          ],
          [
            26.585053,
            40.491599
          ],
          [
            26.681833,
            40.532155
          ],
          [
            26.84888,
            40.595414
          ],
          [
            26.900067,
            40.616927
          ],
          [
            26.987711,
            40.655205
          ],
          [
            27.067007,
            40.682895
          ],
          [
            27.136914,
            40.699998
          ],
          [
            27.20682,
            40.715472
          ],
          [
            27.336198,
            40.75212
          ],
          [
            27.424327,
            40.777384
          ],
          [
            27.501385,
            40.79608
          ],
          [
            27.575641,
            40.803779
          ],
          [
            27.710143,
            40.808178
          ],
          [
            27.881072,
            40.811477
          ],
          [
            28.026022,
            40.80224
          ]
        ]
      }
    },
    {
      "type": "Feature",
      "properties": {
        "average_dip": "(75.0,60,90)",
        "average_rake": "(22,180,-135)",
        "catalog_id": "EUR_GRCS290",
        "catalog_name": "SHARE",
        "lower_seis_depth": "(19.0,,)",
        "net_slip_rate": "(2.6,2.0,3.2)",
        "slip_type": "Sinistral",
        "upper_seis_depth": "(0.0,,)",
        "tech_id": "fault_geom_0026"
      },
      "geometry": {
        "type": "LineString",
        "coordinates": [
          [
            26.608157,
            40.578963
          ],
          [
            26.551118,
            40.574022
          ],
          [
            26.506012,
            40.568668
          ],
          [
            26.454762,
            40.560078
          ],
          [
            26.409486,
            40.551278
          ],
          [
            26.349197,
            40.540655
          ],
          [
            26.291971,
            40.526886
          ],
          [
            26.241925,
            40.511777
          ],
          [
            26.161391,
            40.483999
          ],
          [
            26.078779,
            40.461778
          ],
          [
            25.976645,
            40.4491
          ],
          [
            25.885064,
            40.441799
          ],
          [
            25.793483,
            40.432251
          ],
          [
            25.716211,
            40.415403
          ],
          [
            25.642517,
            40.395184
          ],
          [
            25.576486,
            40.37452
          ],
          [
            25.474729,
            40.345167
          ],
          [
            25.388685,
            40.33019
          ],
          [
            25.335652,
            40.33266
          ],
          [
            25.273129,
            40.339636
          ],
          [
            25.209357,
            40.356467
          ],
          [
            25.159836,
            40.36741
          ]
        ]
      }
    },
    {
      "type": "Feature",
      "properties": {
        "average_dip": "(80.0,70,90)",
        "average_rake": "(15,180,-150)",
        "catalog_id": "EUR_GRCS850",
        "catalog_name": "SHARE",
        "lower_seis_depth": "(15.0,,)",
        "net_slip_rate": "(1.2,0.5,2.0)",
        "slip_type": "Sinistral",
        "upper_seis_depth": "(0.0,,)",
        "tech_id": "fault_geom_0027"
      },
      "geometry": {
        "type": "LineString",
        "coordinates": [
          [
            26.001716,
            38.97414
          ],
          [
            26.020851,
            38.989712
          ],
          [
            26.058929,
            39.019602
          ],
          [
            26.09453,
            39.05066
          ],
          [
            26.134291,
            39.086471
          ],
          [
            26.162838,
            39.111539
          ],
          [
            26.191384,
            39.136606
          ],
          [
            26.215343,
            39.160082
          ],
          [
            26.239301,
            39.183557
          ],
          [
            26.265808,
            39.22096
          ],
          [
            26.277023,
            39.254383
          ],
          [
            26.291296,
            39.288602
          ],
          [
            26.311687,
            39.325208
          ],
          [
            26.333096,
            39.35704
          ],
          [
            26.354506,
            39.379322
          ]
        ]
      }
    },
    {
      "type": "Feature",
      "properties": {
        "average_dip": "(67.5,55,80)",
        "average_rake": "(-75,-90,-60)",
        "catalog_id": "EUR_GRCS857",
        "catalog_name": "SHARE",
        "lower_seis_depth": "(13.0,,)",
        "net_slip_rate": "(0.6,0.2,1.0)",
        "slip_type": "Normal",
        "upper_seis_depth": "(0.0,,)",
        "tech_id": "fault_geom_0028"
      },
      "geometry": {
        "type": "LineString",
        "coordinates": [
          [
            26.533733,
            39.064276
          ],
          [
            26.532286,
            39.071468
          ],
          [
            26.528428,
            39.08131
          ],
          [
            26.517337,
            39.093044
          ],
          [
            26.503353,
            39.108942
          ],
          [
            26.482135,
            39.124083
          ],
          [
            26.462846,
            39.137332
          ],
          [
            26.441147,
            39.147931
          ],
          [
            26.414625,
            39.157394
          ]
        ]
      }
    },
    {
      "type": "Feature",
      "properties": {
        "average_dip": "(62.0,58,66)",
        "average_rake": "(-156,-171,-142)",
        "catalog_id": "EUR_TRCS014",
        "catalog_name": "SHARE",
        "lower_seis_depth": "(18.0,,)",
        "net_slip_rate": "(8.9,7.632,10.1339)",
        "slip_type": "Dextral-Normal",
        "upper_seis_depth": "(0.0,,)",
        "tech_id": "fault_geom_0029"
      },
      "geometry": {
        "type": "LineString",
        "coordinates": [
          [
            29.4575,
            40.7157
          ],
          [
            29.382739,
            40.704215
          ],
          [
            29.271229,
            40.687084
          ],
          [
            29.159184,
            40.672196
          ],
          [
            29.04734,
            40.656579
          ],
          [
            28.934885,
            40.643852
          ],
          [
            28.861882,
            40.710007
          ],
          [
            28.7511,
            40.7298
          ]
        ]
      }
    },
    {
      "type": "Feature",
      "properties": {
        "average_dip": "(85.0,80,90)",
        "average_rake": "(-146,-166,-126)",
        "catalog_id": "EUR_TRCS015",
        "catalog_name": "SHARE",
        "lower_seis_depth": "(18.0,,)",
        "net_slip_rate": "(3.1,1.0,5.2941)",
        "slip_type": "Dextral-Normal",
        "upper_seis_depth": "(0.0,,)",
        "tech_id": "fault_geom_0030"
      },
      "geometry": {
        "type": "LineString",
        "coordinates": [
          [
            29.0356,
            40.6454
          ],
          [
            28.936444,
            40.610345
          ],
          [
            28.82514,
            40.570995
          ],
          [
            28.713889,
            40.531665
          ],
          [
            28.595546,
            40.556254
          ],
          [
            28.495651,
            40.61044
          ],
          [
            28.395702,
            40.664655
          ],
          [
            28.2957,
            40.7189
          ]
        ]
      }
    },
    {
      "type": "Feature",
      "properties": {
        "average_dip": "(85.0,85,85)",
        "average_rake": "(17,180,-146)",
        "catalog_id": "EUR_TRCS023",
        "catalog_name": "SHARE",
        "lower_seis_depth": "(18.0,,)",
        "net_slip_rate": "(5.3,5.3,5.388)",
        "slip_type": "Sinistral",
        "upper_seis_depth": "(0.0,,)",
        "tech_id": "fault_geom_0031"
      },
      "geometry": {
        "type": "LineString",
        "coordinates": [
          [
            29.0782,
            40.3946
          ],
          [
            28.967527,
            40.404676
          ],
          [
            28.860915,
            40.436058
          ],
          [
            28.74839,
            40.451512
          ],
          [
            28.634488,
            40.459319
          ],
          [
            28.520673,
            40.467921
          ],
          [
            28.406589,
            40.474277
          ],
          [
            28.294023,
            40.458838
          ],
          [
            28.181656,
            40.442688
          ],
          [
            28.069315,
            40.426542
          ],
          [
            27.957,
            40.4104
          ]
        ]
      }
    },
    {
      "type": "Feature",
      "properties": {
        "average_dip": "(67.0,49,85)",
        "average_rake": "(180,180,180)",
        "catalog_id": "EUR_TRCS024",
        "catalog_name": "SHARE",
        "lower_seis_depth": "(18.0,,)",
        "net_slip_rate": "(3.0,3.0,3.0)",
        "slip_type": "Dextral",
        "upper_seis_depth": "(0.0,,)",
        "tech_id": "fault_geom_0032"
      },
      "geometry": {
        "type": "LineString",
        "coordinates": [
          [
            27.9101,
            40.3779
          ],
          [
            27.804171,
            40.339367
          ],
          [
            27.696729,
            40.300284
          ],
          [
            27.584919,
            40.269237
          ],
          [
            27.466,
            40.2715
          ]
        ]
      }
    },
    {
      "type": "Feature",
      "properties": {
        "average_dip": "(85.0,85,85)",
        "average_rake": "(180,180,180)",
        "catalog_id": "EUR_TRCS025",
        "catalog_name": "SHARE",
        "lower_seis_depth": "(18.0,,)",
        "net_slip_rate": "(3.0,3.0,3.0)",
        "slip_type": "Dextral",
        "upper_seis_depth": "(0.0,,)",
        "tech_id": "fault_geom_0033"
      },
      "geometry": {
        "type": "LineString",
        "coordinates": [
          [
            27.7157,
            40.2452
          ],
          [
            27.594346,
            40.21005
          ],
          [
            27.472408,
            40.174731
          ],
          [
            27.362406,
            40.121314
          ],
          [
            27.2535,
            40.0667
          ]
        ]
      }
    },
    {
      "type": "Feature",
      "properties": {
        "average_dip": "(85.0,85,85)",
        "average_rake": "(180,180,180)",
        "catalog_id": "EUR_TRCS026",
        "catalog_name": "SHARE",
        "lower_seis_depth": "(18.0,,)",
        "net_slip_rate": "(3.0,3.0,3.0)",
        "slip_type": "Dextral",
        "upper_seis_depth": "(0.0,,)",
        "tech_id": "fault_geom_0034"
      },
      "geometry": {
        "type": "LineString",
        "coordinates": [
          [
            27.9913,
            40.2626
          ],
          [
            28.1144,
            40.3135
          ]
        ]
      }
    },
    {
      "type": "Feature",
      "properties": {
        "average_dip": "(85.0,85,85)",
        "average_rake": "(7,180,-166)",
        "catalog_id": "EUR_TRCS027",
        "catalog_name": "SHARE",
        "lower_seis_depth": "(18.0,,)",
        "net_slip_rate": "(3.6,3.0,4.124)",
        "slip_type": "Sinistral",
        "upper_seis_depth": "(0.0,,)",
        "tech_id": "fault_geom_0035"
      },
      "geometry": {
        "type": "LineString",
        "coordinates": [
          [
            27.1755,
            40.072
          ],
          [
            27.091172,
            40.039588
          ],
          [
            26.985564,
            39.999874
          ],
          [
            26.87507,
            39.969038
          ],
          [
            26.769303,
            39.929745
          ],
          [
            26.668225,
            39.883852
          ],
          [
            26.584852,
            39.820438
          ],
          [
            26.473328,
            39.792538
          ],
          [
            26.361844,
            39.764648
          ],
          [
            26.250402,
            39.736769
          ],
          [
            26.139,
            39.7089
          ]
        ]
      }
    },
    {
      "type": "Feature",
      "properties": {
        "average_dip": "(50.0,50,50)",
        "average_rake": "(-104,-104,-104)",
        "catalog_id": "EUR_TRCS029",
        "catalog_name": "SHARE",
        "lower_seis_depth": "(18.0,,)",
        "net_slip_rate": "None",
        "slip_type": "Normal",
        "upper_seis_depth": "(0.0,,)",
        "tech_id": "fault_geom_0036"
      },
      "geometry": {
        "type": "LineString",
        "coordinates": [
          [
            28.812789,
            40.170987
          ],
          [
            28.946092,
            40.170734
          ],
          [
            29.079386,
            40.170481
          ],
          [
            29.21268,
            40.170228
          ]
        ]
      }
    },
    {
      "type": "Feature",
      "properties": {
        "average_dip": "(40.0,40,40)",
        "average_rake": "(-108,-108,-108)",
        "catalog_id": "EUR_TRCS030",
        "catalog_name": "SHARE",
        "lower_seis_depth": "(18.0,,)",
        "net_slip_rate": "None",
        "slip_type": "Normal",
        "upper_seis_depth": "(0.0,,)",
        "tech_id": "fault_geom_0037"
      },
      "geometry": {
        "type": "LineString",
        "coordinates": [
          [
            28.4286,
            40.0182
          ],
          [
            28.318595,
            40.036214
          ],
          [
            28.208273,
            40.05428
          ],
          [
            28.097923,
            40.07235
          ],
          [
            27.986661,
            40.086886
          ],
          [
            27.875743,
            40.102991
          ],
          [
            27.7648,
            40.1191
          ]
        ]
      }
    },
    {
      "type": "Feature",
      "properties": {
        "average_dip": "(68.0,60,76)",
        "average_rake": "(19,180,-142)",
        "catalog_id": "EUR_TRCS031",
        "catalog_name": "SHARE",
        "lower_seis_depth": "(18.0,,)",
        "net_slip_rate": "(3.6,3.0,4.1306)",
        "slip_type": "Sinistral",
        "upper_seis_depth": "(0.0,,)",
        "tech_id": "fault_geom_0038"
      },
      "geometry": {
        "type": "LineString",
        "coordinates": [
          [
            27.78658,
            40.11124
          ],
          [
            27.689575,
            40.091111
          ],
          [
            27.574162,
            40.067163
          ],
          [
            27.486356,
            40.005097
          ],
          [
            27.384085,
            39.957864
          ],
          [
            27.281866,
            39.910654
          ],
          [
            27.163195,
            39.901436
          ],
          [
            27.04728,
            39.87995
          ]
        ]
      }
    },
    {
      "type": "Feature",
      "properties": {
        "average_dip": "(80.0,80,80)",
        "average_rake": "(180,180,180)",
        "catalog_id": "EUR_TRCS032",
        "catalog_name": "SHARE",
        "lower_seis_depth": "(18.0,,)",
        "net_slip_rate": "(2.0,2.0,2.0)",
        "slip_type": "Dextral",
        "upper_seis_depth": "(0.0,,)",
        "tech_id": "fault_geom_0039"
      },
      "geometry": {
        "type": "LineString",
        "coordinates": [
          [
            26.8073,
            39.5697
          ],
          [
            26.900082,
            39.616412
          ],
          [
            26.992892,
            39.663138
          ],
          [
            27.085745,
            39.709886
          ],
          [
            27.178642,
            39.756656
          ],
          [
            27.271584,
            39.803448
          ],
          [
            27.36457,
            39.850263
          ],
          [
            27.4576,
            39.8971
          ]
        ]
      }
    },
    {
      "type": "Feature",
      "properties": {
        "average_dip": "(60.0,60,60)",
        "average_rake": "(-134,-164,-105)",
        "catalog_id": "EUR_TRCS033",
        "catalog_name": "SHARE",
        "lower_seis_depth": "(18.0,,)",
        "net_slip_rate": "(3.9,3.6638,4.1633)",
        "slip_type": "Dextral-Normal",
        "upper_seis_depth": "(0.0,,)",
        "tech_id": "fault_geom_0040"
      },
      "geometry": {
        "type": "LineString",
        "coordinates": [
          [
            27.0199,
            39.731
          ],
          [
            26.964525,
            39.693799
          ],
          [
            26.872464,
            39.63618
          ],
          [
            26.761756,
            39.60347
          ],
          [
            26.650786,
            39.571408
          ],
          [
            26.538683,
            39.541885
          ],
          [
            26.426623,
            39.512373
          ],
          [
            26.312081,
            39.489347
          ],
          [
            26.201428,
            39.457006
          ],
          [
            26.084466,
            39.443416
          ],
          [
            25.979516,
            39.401357
          ],
          [
            25.873721,
            39.360678
          ],
          [
            25.761956,
            39.331158
          ],
          [
            25.649615,
            39.303083
          ],
          [
            25.544532,
            39.261536
          ],
          [
            25.4386,
            39.2214
          ]
        ]
      }
    },
    {
      "type": "Feature",
      "properties": {
        "average_dip": "(80.0,80,80)",
        "average_rake": "(-161,-161,-161)",
        "catalog_id": "EUR_TRCS034",
        "catalog_name": "SHARE",
        "lower_seis_depth": "(18.0,,)",
        "net_slip_rate": "None",
        "slip_type": "Dextral",
        "upper_seis_depth": "(0.0,,)",
        "tech_id": "fault_geom_0041"
      },
      "geometry": {
        "type": "LineString",
        "coordinates": [
          [
            27.38658,
            39.62084
          ],
          [
            27.53292,
            39.66427
          ]
        ]
      }
    },
    {
      "type": "Feature",
      "properties": {
        "average_dip": "(80.0,80,80)",
        "average_rake": "(-161,-161,-161)",
        "catalog_id": "EUR_TRCS035",
        "catalog_name": "SHARE",
        "lower_seis_depth": "(18.0,,)",
        "net_slip_rate": "None",
        "slip_type": "Dextral",
        "upper_seis_depth": "(0.0,,)",
        "tech_id": "fault_geom_0042"
      },
      "geometry": {
        "type": "LineString",
        "coordinates": [
          [
            27.06238,
            39.5221
          ],
          [
            27.20693,
            39.582777
          ]
        ]
      }
    },
    {
      "type": "Feature",
      "properties": {
        "average_dip": "(80.0,80,80)",
        "average_rake": "(180,180,180)",
        "catalog_id": "EUR_TRCS036",
        "catalog_name": "SHARE",
        "lower_seis_depth": "(18.0,,)",
        "net_slip_rate": "(2.0,2.0,2.0)",
        "slip_type": "Dextral",
        "upper_seis_depth": "(0.0,,)",
        "tech_id": "fault_geom_0043"
      },
      "geometry": {
        "type": "LineString",
        "coordinates": [
          [
            27.57924,
            39.88959
          ],
          [
            27.70416,
            39.95027
          ]
        ]
      }
    },
    {
      "type": "Feature",
      "properties": {
        "average_dip": "(85.0,85,85)",
        "average_rake": "(180,180,180)",
        "catalog_id": "EUR_TRCS040",
        "catalog_name": "SHARE",
        "lower_seis_depth": "(18.0,,)",
        "net_slip_rate": "(3.4,3.4,3.4)",
        "slip_type": "Dextral",
        "upper_seis_depth": "(0.0,,)",
        "tech_id": "fault_geom_0044"
      },
      "geometry": {
        "type": "LineString",
        "coordinates": [
          [
            28.462543,
            40.021253
          ],
          [
            28.576002,
            40.077802
          ],
          [
            28.689525,
            40.134381
          ],
          [
            28.803114,
            40.190994
          ]
        ]
      }
    },
    {
      "type": "Feature",
      "properties": {
        "average_dip": "(80.0,80,80)",
        "average_rake": "(180,180,180)",
        "catalog_id": "EUR_TRCS043",
        "catalog_name": "SHARE",
        "lower_seis_depth": "(18.0,,)",
        "net_slip_rate": "(2.0,2.0,2.0)",
        "slip_type": "Dextral",
        "upper_seis_depth": "(0.0,,)",
        "tech_id": "fault_geom_0045"
      },
      "geometry": {
        "type": "LineString",
        "coordinates": [
          [
            27.40078,
            39.84557
          ],
          [
            27.481071,
            39.886013
          ],
          [
            27.56139,
            39.92647
          ]
        ]
      }
    },
    {
      "type": "Feature",
      "properties": {
        "average_dip": "(56.0,56,56)",
        "average_rake": "(-90,-90,-90)",
        "catalog_id": "EUR_TRCS209",
        "catalog_name": "SHARE",
        "lower_seis_depth": "(15.0,,)",
        "net_slip_rate": "None",
        "slip_type": "Normal",
        "upper_seis_depth": "(0.0,,)",
        "tech_id": "fault_geom_0046"
      },
      "geometry": {
        "type": "LineString",
        "coordinates": [
          [
            28.420788,
            39.18864
          ],
          [
            28.542098,
            39.168706
          ],
          [
            28.663372,
            39.148778
          ],
          [
            28.784612,
            39.128855
          ],
          [
            28.90582,
            39.108938
          ]
        ]
      }
    },
    {
      "type": "Feature",
      "properties": {
        "average_dip": "(50.0,50,50)",
        "average_rake": "(-95,-95,-95)",
        "catalog_id": "EUR_TRCS210",
        "catalog_name": "SHARE",
        "lower_seis_depth": "(15.0,,)",
        "net_slip_rate": "(5.0,4.9605,5.0246)",
        "slip_type": "Normal",
        "upper_seis_depth": "(0.0,,)",
        "tech_id": "fault_geom_0047"
      },
      "geometry": {
        "type": "LineString",
        "coordinates": [
          [
            28.023449,
            39.264565
          ],
          [
            28.126545,
            39.225212
          ],
          [
            28.229588,
            39.18588
          ],
          [
            28.332585,
            39.146565
          ]
        ]
      }
    },
    {
      "type": "Feature",
      "properties": {
        "average_dip": "(40.0,40,40)",
        "average_rake": "(-56,-56,-56)",
        "catalog_id": "EUR_TRCS230",
        "catalog_name": "SHARE",
        "lower_seis_depth": "(10.0,,)",
        "net_slip_rate": "(0.8,0.0001,1.6341)",
        "slip_type": "Sinistral-Normal",
        "upper_seis_depth": "(0.0,,)",
        "tech_id": "fault_geom_0048"
      },
      "geometry": {
        "type": "LineString",
        "coordinates": [
          [
            28.739669,
            39.163254
          ],
          [
            28.81697,
            39.20113
          ]
        ]
      }
    },
    {
      "type": "Feature",
      "properties": {
        "average_dip": "(40.0,40,40)",
        "average_rake": "(-118,-118,-118)",
        "catalog_id": "EUR_TRCS231",
        "catalog_name": "SHARE",
        "lower_seis_depth": "(10.0,,)",
        "net_slip_rate": "(0.8,0.0001,1.5589)",
        "slip_type": "Dextral-Normal",
        "upper_seis_depth": "(0.0,,)",
        "tech_id": "fault_geom_0049"
      },
      "geometry": {
        "type": "LineString",
        "coordinates": [
          [
            28.070327,
            39.336419
          ],
          [
            28.164124,
            39.308296
          ],
          [
            28.257883,
            39.280185
          ],
          [
            28.351609,
            39.252083
          ]
        ]
      }
    },
    {
      "type": "Feature",
      "properties": {
        "average_dip": "(70.0,70,70)",
        "average_rake": "(-146,-146,-146)",
        "catalog_id": "EUR_TRCS232",
        "catalog_name": "SHARE",
        "lower_seis_depth": "(15.0,,)",
        "net_slip_rate": "(1.6,0.0001,3.1832)",
        "slip_type": "Dextral-Normal",
        "upper_seis_depth": "(0.0,,)",
        "tech_id": "fault_geom_0050"
      },
      "geometry": {
        "type": "LineString",
        "coordinates": [
          [
            28.163514,
            39.668258
          ],
          [
            28.162,
            39.598244
          ],
          [
            28.157554,
            39.505115
          ],
          [
            28.100308,
            39.423071
          ],
          [
            28.052346,
            39.337573
          ],
          [
            27.990121,
            39.257787
          ],
          [
            27.957908,
            39.168002
          ],
          [
            27.891994,
            39.090091
          ],
          [
            27.823265,
            39.013696
          ],
          [
            27.835222,
            38.92097
          ],
          [
            27.753898,
            38.852578
          ],
          [
            27.67261,
            38.784217
          ]
        ]
      }
    },
    {
      "type": "Feature",
      "properties": {
        "average_dip": "(70.0,70,70)",
        "average_rake": "(180,180,180)",
        "catalog_id": "EUR_TRCS233",
        "catalog_name": "SHARE",
        "lower_seis_depth": "(15.0,,)",
        "net_slip_rate": "(2.0,2.0,2.0)",
        "slip_type": "Dextral",
        "upper_seis_depth": "(0.0,,)",
        "tech_id": "fault_geom_0051"
      },
      "geometry": {
        "type": "LineString",
        "coordinates": [
          [
            27.682032,
            39.43613
          ],
          [
            27.780876,
            39.490672
          ],
          [
            27.879745,
            39.545227
          ],
          [
            27.978665,
            39.59981
          ],
          [
            28.077637,
            39.654422
          ],
          [
            28.17666,
            39.709063
          ],
          [
            28.275736,
            39.763732
          ],
          [
            28.374863,
            39.81843
          ]
        ]
      }
    },
    {
      "type": "Feature",
      "properties": {
        "average_dip": "(70.0,70,70)",
        "average_rake": "(-166,-166,-166)",
        "catalog_id": "EUR_TRCS234",
        "catalog_name": "SHARE",
        "lower_seis_depth": "(15.0,,)",
        "net_slip_rate": "(2.1,2.0,2.2655)",
        "slip_type": "Dextral",
        "upper_seis_depth": "(0.0,,)",
        "tech_id": "fault_geom_0052"
      },
      "geometry": {
        "type": "LineString",
        "coordinates": [
          [
            27.867323,
            39.624878
          ],
          [
            27.759243,
            39.622199
          ],
          [
            27.651172,
            39.619521
          ],
          [
            27.543105,
            39.616842
          ]
        ]
      }
    },
    {
      "type": "Feature",
      "properties": {
        "average_dip": "(64.0,64,64)",
        "average_rake": "(-130,-130,-130)",
        "catalog_id": "EUR_TRCS311",
        "catalog_name": "SHARE",
        "lower_seis_depth": "(15.0,,)",
        "net_slip_rate": "(1.3,0.0001,2.6836)",
        "slip_type": "Dextral-Normal",
        "upper_seis_depth": "(0.0,,)",
        "tech_id": "fault_geom_0053"
      },
      "geometry": {
        "type": "LineString",
        "coordinates": [
          [
            30.148197,
            39.355612
          ],
          [
            30.097045,
            39.372708
          ],
          [
            29.991093,
            39.408118
          ],
          [
            29.885096,
            39.443544
          ],
          [
            29.779053,
            39.478985
          ],
          [
            29.672965,
            39.514441
          ],
          [
            29.574747,
            39.46739
          ],
          [
            29.463033,
            39.490281
          ],
          [
            29.351284,
            39.513179
          ],
          [
            29.239501,
            39.536084
          ],
          [
            29.127684,
            39.558996
          ],
          [
            29.020832,
            39.593287
          ],
          [
            28.910402,
            39.620125
          ],
          [
            28.795141,
            39.628914
          ],
          [
            28.679866,
            39.637704
          ],
          [
            28.564576,
            39.646495
          ],
          [
            28.449272,
            39.655287
          ],
          [
            28.333953,
            39.66408
          ],
          [
            28.218619,
            39.672874
          ]
        ]
      }
    },
    {
      "type": "Feature",
      "properties": {
        "average_dip": "(75.0,75,75)",
        "average_rake": "(-32,-32,-32)",
        "catalog_id": "EUR_TRCS316",
        "catalog_name": "SHARE",
        "lower_seis_depth": "(13.0,,)",
        "net_slip_rate": "(1.0,0.0001,2.0659)",
        "slip_type": "Sinistral-Normal",
        "upper_seis_depth": "(0.0,,)",
        "tech_id": "fault_geom_0054"
      },
      "geometry": {
        "type": "LineString",
        "coordinates": [
          [
            27.57686,
            39.15672
          ],
          [
            27.483529,
            39.121751
          ],
          [
            27.390245,
            39.086799
          ],
          [
            27.296999,
            39.051861
          ],
          [
            27.20379,
            39.016938
          ]
        ]
      }
    },
    {
      "type": "Feature",
      "properties": {
        "average_dip": "(75.0,75,75)",
        "average_rake": "(-32,-32,-32)",
        "catalog_id": "EUR_TRCS318",
        "catalog_name": "SHARE",
        "lower_seis_depth": "(8.0,,)",
        "net_slip_rate": "(1.0,0.0001,2.0659)",
        "slip_type": "Sinistral-Normal",
        "upper_seis_depth": "(0.0,,)",
        "tech_id": "fault_geom_0055"
      },
      "geometry": {
        "type": "LineString",
        "coordinates": [
          [
            27.24492,
            39.11508
          ],
          [
            27.333537,
            39.175743
          ],
          [
            27.42219,
            39.23643
          ]
        ]
      }
    },
    {
      "type": "Feature",
      "properties": {
        "average_dip": "(85.0,85,85)",
        "average_rake": "(-148,-148,-148)",
        "catalog_id": "EUR_TRCS416",
        "catalog_name": "SHARE",
        "lower_seis_depth": "(13.0,,)",
        "net_slip_rate": "(1.0,0.0001,2.062)",
        "slip_type": "Dextral-Normal",
        "upper_seis_depth": "(0.0,,)",
        "tech_id": "fault_geom_0056"
      },
      "geometry": {
        "type": "LineString",
        "coordinates": [
          [
            27.585544,
            38.812403
          ],
          [
            27.606005,
            38.902081
          ],
          [
            27.626467,
            38.99176
          ],
          [
            27.646929,
            39.081443
          ],
          [
            27.667392,
            39.171129
          ]
        ]
      }
    },
    {
      "type": "Feature",
      "properties": {
        "average_dip": "(85.0,85,85)",
        "average_rake": "(180,180,180)",
        "catalog_id": "EUR_TRCS417",
        "catalog_name": "SHARE",
        "lower_seis_depth": "(18.0,,)",
        "net_slip_rate": "(3.0,3.0,3.0)",
        "slip_type": "Dextral",
        "upper_seis_depth": "(0.0,,)",
        "tech_id": "fault_geom_0057"
      },
      "geometry": {
        "type": "LineString",
        "coordinates": [
          [
            26.85807,
            39.76465
          ],
          [
            26.939888,
            39.821412
          ],
          [
            27.021741,
            39.878198
          ],
          [
            27.10363,
            39.93501
          ]
        ]
      }
    },
    {
      "type": "Feature",
      "properties": {
        "average_dip": "(46.0,46,46)",
        "average_rake": "(-90,-90,-90)",
        "catalog_id": "EUR_TRCS438",
        "catalog_name": "SHARE",
        "lower_seis_depth": "(6.0,,)",
        "net_slip_rate": "(0.7,0.0001,1.3902)",
        "slip_type": "Normal",
        "upper_seis_depth": "(0.0,,)",
        "tech_id": "fault_geom_0058"
      },
      "geometry": {
        "type": "LineString",
        "coordinates": [
          [
            29.034874,
            39.085033
          ],
          [
            28.970431,
            39.144229
          ],
          [
            28.884265,
            39.201181
          ]
        ]
      }
    },
    {
      "type": "Feature",
      "properties": {
        "average_dip": "(65.0,50,80)",
        "average_rake": "(-90,-100,-80)",
        "catalog_id": "EUR_TRCS901",
        "catalog_name": "SHARE",
        "lower_seis_depth": "(15.0,,)",
        "net_slip_rate": "(0.9,0.6,1.1)",
        "slip_type": "Normal",
        "upper_seis_depth": "(0.0,,)",
        "tech_id": "fault_geom_0059"
      },
      "geometry": {
        "type": "LineString",
        "coordinates": [
          [
            26.433029,
            40.010732
          ],
          [
            26.418467,
            40.002232
          ],
          [
            26.405771,
            40.000766
          ],
          [
            26.377766,
            39.990508
          ],
          [
            26.365818,
            39.98787
          ],
          [
            26.351237,
            39.977175
          ],
          [
            26.334398,
            39.971274
          ],
          [
            26.318461,
            39.968914
          ],
          [
            26.295908,
            39.968678
          ],
          [
            26.274558,
            39.965137
          ],
          [
            26.253208,
            39.961597
          ],
          [
            26.239977,
            39.959472
          ],
          [
            26.225048,
            39.958853
          ],
          [
            26.205997,
            39.958764
          ],
          [
            26.180137,
            39.960416
          ],
          [
            26.169011,
            39.962305
          ]
        ]
      }
    },
    {
      "type": "Feature",
      "properties": {
        "average_dip": "(72.5,55,90)",
        "average_rake": "(22,180,-135)",
        "catalog_id": "EUR_TRCS996",
        "catalog_name": "SHARE",
        "lower_seis_depth": "(19.0,,)",
        "net_slip_rate": "(27.7,26.5,28.8881)",
        "slip_type": "Sinistral",
        "upper_seis_depth": "(0.0,,)",
        "tech_id": "fault_geom_0060"
      },
      "geometry": {
        "type": "LineString",
        "coordinates": [
          [
            28.026022,
            40.80224
          ],
          [
            27.881072,
            40.811477
          ],
          [
            27.710143,
            40.808178
          ],
          [
            27.575641,
            40.803779
          ],
          [
            27.501385,
            40.79608
          ],
          [
            27.424327,
            40.777384
          ],
          [
            27.336198,
            40.75212
          ],
          [
            27.20682,
            40.715472
          ],
          [
            27.136914,
            40.699998
          ],
          [
            27.067007,
            40.682895
          ],
          [
            26.987711,
            40.655205
          ],
          [
            26.900067,
            40.616927
          ],
          [
            26.84888,
            40.595414
          ],
          [
            26.681833,
            40.532155
          ],
          [
            26.585053,
            40.491599
          ],
          [
            26.488272,
            40.451043
          ],
          [
            26.321028,
            40.371284
          ],
          [
            26.200499,
            40.315794
          ],
          [
            26.085589,
            40.272354
          ],
          [
            25.926659,
            40.247307
          ],
          [
            25.773818,
            40.212031
          ],
          [
            25.628512,
            40.161581
          ],
          [
            25.524078,
            40.123521
          ],
          [
            25.389534,
            40.092251
          ],
          [
            25.251618,
            40.053514
          ],
          [
            25.081501,
            40.006679
          ],
          [
            25.005397,
            39.984839
          ]
        ]
      }
    }
  ]
}